IRIDIUM 119             
1 42959U 17061E   25067.84044887  .00000686  00000+0  23795-3 0  9995
2 42959  86.3984 219.6584 0002325  91.9321 268.2141 14.34218204388115
IRIDIUM 107             
1 42960U 17061F   25067.85947642  .00000219  00000+0  71313-4 0  9991
2 42960  86.3983 219.6691 0002396  82.9262 277.2207 14.34218322388122
IRIDIUM 132             
1 42961U 17061G   25067.86581535  .00000255  00000+0  83897-4 0  9998
2 42961  86.3983 219.6493 0002056  90.5058 269.6374 14.34217717388121
IRIDIUM 136             
1 42962U 17061H   25067.82776230  .00000498  00000+0  17091-3 0  9994
2 42962  86.3983 219.6694 0002430  88.2157 271.9317 14.34220170388136
IRIDIUM 139             
1 42963U 17061J   25067.90387213 -.00000029  00000+0 -17304-4 0  9993
2 42963  86.3986 219.6921 0002184  86.4640 273.6805 14.34214248388158
IRIDIUM 125             
1 42964U 17061K   25067.89118996  .00000223  00000+0  72453-4 0  9992
2 42964  86.3986 219.7499 0002733  92.1525 267.9983 14.34217877388161
IRIDIUM 135             
1 43070U 17083A   25067.79554624  .00000440  00000+0  14999-3 0  9997
2 43070  86.4031 156.5642 0002036 101.7107 258.4317 14.34217965377442
IRIDIUM 138             
1 43071U 17083B   25067.75114974  .00000413  00000+0  14034-3 0  9994
2 43071  86.4020 156.2667 0002760 105.0861 255.0640 14.34216713377423
