<?xml version="1.0" encoding="UTF-8"?>
<ndm xmlns:xsi="http://www.w3.org/2001/XMLSchema-instance" xsi:noNamespaceSchemaLocation="https://sanaregistry.org/r/ndmxml_unqualified/ndmxml-2.0.0-master-2.0.xsd">
<omm id="CCSDS_OMM_VERS" version="2.0">
<header><CREATION_DATE/><ORIGINATOR/></header><body><segment><metadata><OBJECT_NAME>IRIDIUM 119</OBJECT_NAME><OBJECT_ID>2017-061E</OBJECT_ID><CENTER_NAME>EARTH</CENTER_NAME><REF_FRAME>TEME</REF_FRAME><TIME_SYSTEM>UTC</TIME_SYSTEM><MEAN_ELEMENT_THEORY>SGP4</MEAN_ELEMENT_THEORY></metadata><data><meanElements><EPOCH>2025-03-08T20:10:14.782368</EPOCH><MEAN_MOTION>14.34218204</MEAN_MOTION><ECCENTRICITY>.0002325</ECCENTRICITY><INCLINATION>86.3984</INCLINATION><RA_OF_ASC_NODE>219.6584</RA_OF_ASC_NODE><ARG_OF_PERICENTER>91.9321</ARG_OF_PERICENTER><MEAN_ANOMALY>268.2141</MEAN_ANOMALY></meanElements><tleParameters><EPHEMERIS_TYPE>0</EPHEMERIS_TYPE><CLASSIFICATION_TYPE>U</CLASSIFICATION_TYPE><NORAD_CAT_ID>42959</NORAD_CAT_ID><ELEMENT_SET_NO>999</ELEMENT_SET_NO><REV_AT_EPOCH>38811</REV_AT_EPOCH><BSTAR>.23795E-3</BSTAR><MEAN_MOTION_DOT>.686E-5</MEAN_MOTION_DOT><MEAN_MOTION_DDOT>0</MEAN_MOTION_DDOT></tleParameters></data></segment></body></omm>
<omm id="CCSDS_OMM_VERS" version="2.0">
<header><CREATION_DATE/><ORIGINATOR/></header><body><segment><metadata><OBJECT_NAME>IRIDIUM 107</OBJECT_NAME><OBJECT_ID>2017-061F</OBJECT_ID><CENTER_NAME>EARTH</CENTER_NAME><REF_FRAME>TEME</REF_FRAME><TIME_SYSTEM>UTC</TIME_SYSTEM><MEAN_ELEMENT_THEORY>SGP4</MEAN_ELEMENT_THEORY></metadata><data><meanElements><EPOCH>2025-03-08T20:37:38.762688</EPOCH><MEAN_MOTION>14.34218322</MEAN_MOTION><ECCENTRICITY>.0002396</ECCENTRICITY><INCLINATION>86.3983</INCLINATION><RA_OF_ASC_NODE>219.6691</RA_OF_ASC_NODE><ARG_OF_PERICENTER>82.9262</ARG_OF_PERICENTER><MEAN_ANOMALY>277.2207</MEAN_ANOMALY></meanElements><tleParameters><EPHEMERIS_TYPE>0</EPHEMERIS_TYPE><CLASSIFICATION_TYPE>U</CLASSIFICATION_TYPE><NORAD_CAT_ID>42960</NORAD_CAT_ID><ELEMENT_SET_NO>999</ELEMENT_SET_NO><REV_AT_EPOCH>38813</REV_AT_EPOCH><BSTAR>.71313E-4</BSTAR><MEAN_MOTION_DOT>.219E-5</MEAN_MOTION_DOT><MEAN_MOTION_DDOT>0</MEAN_MOTION_DDOT></tleParameters></data></segment></body></omm>
<omm id="CCSDS_OMM_VERS" version="2.0">
<header><CREATION_DATE/><ORIGINATOR/></header><body><segment><metadata><OBJECT_NAME>IRIDIUM 132</OBJECT_NAME><OBJECT_ID>2017-061G</OBJECT_ID><CENTER_NAME>EARTH</CENTER_NAME><REF_FRAME>TEME</REF_FRAME><TIME_SYSTEM>UTC</TIME_SYSTEM><MEAN_ELEMENT_THEORY>SGP4</MEAN_ELEMENT_THEORY></metadata><data><meanElements><EPOCH>2025-03-08T20:46:46.446240</EPOCH><MEAN_MOTION>14.34217717</MEAN_MOTION><ECCENTRICITY>.0002056</ECCENTRICITY><INCLINATION>86.3983</INCLINATION><RA_OF_ASC_NODE>219.6493</RA_OF_ASC_NODE><ARG_OF_PERICENTER>90.5058</ARG_OF_PERICENTER><MEAN_ANOMALY>269.6374</MEAN_ANOMALY></meanElements><tleParameters><EPHEMERIS_TYPE>0</EPHEMERIS_TYPE><CLASSIFICATION_TYPE>U</CLASSIFICATION_TYPE><NORAD_CAT_ID>42961</NORAD_CAT_ID><ELEMENT_SET_NO>999</ELEMENT_SET_NO><REV_AT_EPOCH>38812</REV_AT_EPOCH><BSTAR>.83897E-4</BSTAR><MEAN_MOTION_DOT>.255E-5</MEAN_MOTION_DOT><MEAN_MOTION_DDOT>0</MEAN_MOTION_DDOT></tleParameters></data></segment></body></omm>
<omm id="CCSDS_OMM_VERS" version="2.0">
<header><CREATION_DATE/><ORIGINATOR/></header><body><segment><metadata><OBJECT_NAME>IRIDIUM 136</OBJECT_NAME><OBJECT_ID>2017-061H</OBJECT_ID><CENTER_NAME>EARTH</CENTER_NAME><REF_FRAME>TEME</REF_FRAME><TIME_SYSTEM>UTC</TIME_SYSTEM><MEAN_ELEMENT_THEORY>SGP4</MEAN_ELEMENT_THEORY></metadata><data><meanElements><EPOCH>2025-03-08T19:51:58.662720</EPOCH><MEAN_MOTION>14.34220170</MEAN_MOTION><ECCENTRICITY>.000243</ECCENTRICITY><INCLINATION>86.3983</INCLINATION><RA_OF_ASC_NODE>219.6694</RA_OF_ASC_NODE><ARG_OF_PERICENTER>88.2157</ARG_OF_PERICENTER><MEAN_ANOMALY>271.9317</MEAN_ANOMALY></meanElements><tleParameters><EPHEMERIS_TYPE>0</EPHEMERIS_TYPE><CLASSIFICATION_TYPE>U</CLASSIFICATION_TYPE><NORAD_CAT_ID>42962</NORAD_CAT_ID><ELEMENT_SET_NO>999</ELEMENT_SET_NO><REV_AT_EPOCH>38813</REV_AT_EPOCH><BSTAR>.17091E-3</BSTAR><MEAN_MOTION_DOT>.498E-5</MEAN_MOTION_DOT><MEAN_MOTION_DDOT>0</MEAN_MOTION_DDOT></tleParameters></data></segment></body></omm>
<omm id="CCSDS_OMM_VERS" version="2.0">
<header><CREATION_DATE/><ORIGINATOR/></header><body><segment><metadata><OBJECT_NAME>IRIDIUM 139</OBJECT_NAME><OBJECT_ID>2017-061J</OBJECT_ID><CENTER_NAME>EARTH</CENTER_NAME><REF_FRAME>TEME</REF_FRAME><TIME_SYSTEM>UTC</TIME_SYSTEM><MEAN_ELEMENT_THEORY>SGP4</MEAN_ELEMENT_THEORY></metadata><data><meanElements><EPOCH>2025-03-08T21:41:34.552032</EPOCH><MEAN_MOTION>14.34214248</MEAN_MOTION><ECCENTRICITY>.0002184</ECCENTRICITY><INCLINATION>86.3986</INCLINATION><RA_OF_ASC_NODE>219.6921</RA_OF_ASC_NODE><ARG_OF_PERICENTER>86.4640</ARG_OF_PERICENTER><MEAN_ANOMALY>273.6805</MEAN_ANOMALY></meanElements><tleParameters><EPHEMERIS_TYPE>0</EPHEMERIS_TYPE><CLASSIFICATION_TYPE>U</CLASSIFICATION_TYPE><NORAD_CAT_ID>42963</NORAD_CAT_ID><ELEMENT_SET_NO>999</ELEMENT_SET_NO><REV_AT_EPOCH>38815</REV_AT_EPOCH><BSTAR>-.17304E-4</BSTAR><MEAN_MOTION_DOT>-.29E-6</MEAN_MOTION_DOT><MEAN_MOTION_DDOT>0</MEAN_MOTION_DDOT></tleParameters></data></segment></body></omm>
<omm id="CCSDS_OMM_VERS" version="2.0">
<header><CREATION_DATE/><ORIGINATOR/></header><body><segment><metadata><OBJECT_NAME>IRIDIUM 125</OBJECT_NAME><OBJECT_ID>2017-061K</OBJECT_ID><CENTER_NAME>EARTH</CENTER_NAME><REF_FRAME>TEME</REF_FRAME><TIME_SYSTEM>UTC</TIME_SYSTEM><MEAN_ELEMENT_THEORY>SGP4</MEAN_ELEMENT_THEORY></metadata><data><meanElements><EPOCH>2025-03-08T21:23:18.812544</EPOCH><MEAN_MOTION>14.34217877</MEAN_MOTION><ECCENTRICITY>.0002733</ECCENTRICITY><INCLINATION>86.3986</INCLINATION><RA_OF_ASC_NODE>219.7499</RA_OF_ASC_NODE><ARG_OF_PERICENTER>92.1525</ARG_OF_PERICENTER><MEAN_ANOMALY>267.9983</MEAN_ANOMALY></meanElements><tleParameters><EPHEMERIS_TYPE>0</EPHEMERIS_TYPE><CLASSIFICATION_TYPE>U</CLASSIFICATION_TYPE><NORAD_CAT_ID>42964</NORAD_CAT_ID><ELEMENT_SET_NO>999</ELEMENT_SET_NO><REV_AT_EPOCH>38816</REV_AT_EPOCH><BSTAR>.72453E-4</BSTAR><MEAN_MOTION_DOT>.223E-5</MEAN_MOTION_DOT><MEAN_MOTION_DDOT>0</MEAN_MOTION_DDOT></tleParameters></data></segment></body></omm>
<omm id="CCSDS_OMM_VERS" version="2.0">
<header><CREATION_DATE/><ORIGINATOR/></header><body><segment><metadata><OBJECT_NAME>IRIDIUM 135</OBJECT_NAME><OBJECT_ID>2017-083A</OBJECT_ID><CENTER_NAME>EARTH</CENTER_NAME><REF_FRAME>TEME</REF_FRAME><TIME_SYSTEM>UTC</TIME_SYSTEM><MEAN_ELEMENT_THEORY>SGP4</MEAN_ELEMENT_THEORY></metadata><data><meanElements><EPOCH>2025-03-08T19:05:35.195136</EPOCH><MEAN_MOTION>14.34217965</MEAN_MOTION><ECCENTRICITY>.0002036</ECCENTRICITY><INCLINATION>86.4031</INCLINATION><RA_OF_ASC_NODE>156.5642</RA_OF_ASC_NODE><ARG_OF_PERICENTER>101.7107</ARG_OF_PERICENTER><MEAN_ANOMALY>258.4317</MEAN_ANOMALY></meanElements><tleParameters><EPHEMERIS_TYPE>0</EPHEMERIS_TYPE><CLASSIFICATION_TYPE>U</CLASSIFICATION_TYPE><NORAD_CAT_ID>43070</NORAD_CAT_ID><ELEMENT_SET_NO>999</ELEMENT_SET_NO><REV_AT_EPOCH>37744</REV_AT_EPOCH><BSTAR>.14999E-3</BSTAR><MEAN_MOTION_DOT>.44E-5</MEAN_MOTION_DOT><MEAN_MOTION_DDOT>0</MEAN_MOTION_DDOT></tleParameters></data></segment></body></omm>
<omm id="CCSDS_OMM_VERS" version="2.0">
<header><CREATION_DATE/><ORIGINATOR/></header><body><segment><metadata><OBJECT_NAME>IRIDIUM 138</OBJECT_NAME><OBJECT_ID>2017-083B</OBJECT_ID><CENTER_NAME>EARTH</CENTER_NAME><REF_FRAME>TEME</REF_FRAME><TIME_SYSTEM>UTC</TIME_SYSTEM><MEAN_ELEMENT_THEORY>SGP4</MEAN_ELEMENT_THEORY></metadata><data><meanElements><EPOCH>2025-03-08T18:01:39.337536</EPOCH><MEAN_MOTION>14.34216713</MEAN_MOTION><ECCENTRICITY>.000276</ECCENTRICITY><INCLINATION>86.4020</INCLINATION><RA_OF_ASC_NODE>156.2667</RA_OF_ASC_NODE><ARG_OF_PERICENTER>105.0861</ARG_OF_PERICENTER><MEAN_ANOMALY>255.0640</MEAN_ANOMALY></meanElements><tleParameters><EPHEMERIS_TYPE>0</EPHEMERIS_TYPE><CLASSIFICATION_TYPE>U</CLASSIFICATION_TYPE><NORAD_CAT_ID>43071</NORAD_CAT_ID><ELEMENT_SET_NO>999</ELEMENT_SET_NO><REV_AT_EPOCH>37742</REV_AT_EPOCH><BSTAR>.14034E-3</BSTAR><MEAN_MOTION_DOT>.413E-5</MEAN_MOTION_DOT><MEAN_MOTION_DDOT>0</MEAN_MOTION_DDOT></tleParameters></data></segment></body></omm>

</ndm>
